{
  "type": "FeatureCollection",
  "features": [
    {
      "type": "Feature",
      "properties": {
        "norad_id": 35045,
        "name": "COSMOS 2251 DEB",
        "group": "cosmos-2251-debris",
        "lat": 3.9686130551783236,
        "lon": 31.92222726259314,
        "alt_km": 899.2970804453053,
        "timestamp": "2025-12-25T03:55:56.763226+00:00",
        "meta_object_name": "COSMOS 2251 DEB",
        "meta_object_id": "1993-036AHJ",
        "meta_epoch": "2025-12-24T19:20:26.125152",
        "meta_mean_motion": 14.0041252,
        "meta_eccentricity": 0.0183996,
        "meta_inclination": 73.7191,
        "meta_ra_of_asc_node": 31.3925,
        "meta_arg_of_pericenter": 271.7742,
        "meta_mean_anomaly": 86.2325,
        "meta_ephemeris_type": 0,
        "meta_classification_type": "U",
        "meta_norad_cat_id": 35045,
        "meta_element_set_no": 999,
        "meta_rev_at_epoch": 84812,
        "meta_bstar": 0.00062767,
        "meta_mean_motion_dot": 1.049e-05,
        "meta_mean_motion_ddot": 0,
        "tle_line1": "1 35045U 93036AHJ 25358.80585793  .00001049  00000+0  62767-3 0  9990",
        "tle_line2": "2 35045  73.7191  31.3925 0183996 271.7742  86.2325 14.00412520848124"
      },
      "geometry": {
        "type": "Point",
        "coordinates": [
          31.92222726259314,
          3.9686130551783236
        ]
      }
    },
    {
      "type": "Feature",
      "properties": {
        "norad_id": 35060,
        "name": "COSMOS 2251 DEB",
        "group": "cosmos-2251-debris",
        "lat": -47.299574123038944,
        "lon": -156.75150353803514,
        "alt_km": 746.291986268372,
        "timestamp": "2025-12-25T03:55:56.763236+00:00",
        "meta_object_name": "COSMOS 2251 DEB",
        "meta_object_id": "1993-036AHP",
        "meta_epoch": "2025-12-23T23:50:58.864704",
        "meta_mean_motion": 14.416228,
        "meta_eccentricity": 0.00187381,
        "meta_inclination": 74.0364,
        "meta_ra_of_asc_node": 223.4863,
        "meta_arg_of_pericenter": 306.8479,
        "meta_mean_anomaly": 53.0958,
        "meta_ephemeris_type": 0,
        "meta_classification_type": "U",
        "meta_norad_cat_id": 35060,
        "meta_element_set_no": 999,
        "meta_rev_at_epoch": 87404,
        "meta_bstar": 0.0002601881,
        "meta_mean_motion_dot": 8.22e-06,
        "meta_mean_motion_ddot": 0,
        "tle_line1": "1 35060U 93036AHP 25357.99373686  .00000822  00000+0  26019-3 0  9990",
        "tle_line2": "2 35060  74.0364 223.4863 0018738 306.8479  53.0958 14.41622800874043"
      },
      "geometry": {
        "type": "Point",
        "coordinates": [
          -156.75150353803514,
          -47.299574123038944
        ]
      }
    },
    {
      "type": "Feature",
      "properties": {
        "norad_id": 35061,
        "name": "COSMOS 2251 DEB",
        "group": "cosmos-2251-debris",
        "lat": -66.52123604568578,
        "lon": -119.45925041820003,
        "alt_km": 680.1244964877424,
        "timestamp": "2025-12-25T03:55:56.763246+00:00",
        "meta_object_name": "COSMOS 2251 DEB",
        "meta_object_id": "1993-036AHQ",
        "meta_epoch": "2025-12-23T13:00:21.862944",
        "meta_mean_motion": 14.67913326,
        "meta_eccentricity": 0.00396373,
        "meta_inclination": 74.0464,
        "meta_ra_of_asc_node": 284.8618,
        "meta_arg_of_pericenter": 32.7091,
        "meta_mean_anomaly": 327.652,
        "meta_ephemeris_type": 0,
        "meta_classification_type": "U",
        "meta_norad_cat_id": 35061,
        "meta_element_set_no": 999,
        "meta_rev_at_epoch": 88733,
        "meta_bstar": 0.00077438177,
        "meta_mean_motion_dot": 4.453e-05,
        "meta_mean_motion_ddot": 0,
        "tle_line1": "1 35061U 93036AHQ 25357.54191971  .00004453  00000+0  77438-3 0  9992",
        "tle_line2": "2 35061  74.0464 284.8618 0039637  32.7091 327.6520 14.67913326887335"
      },
      "geometry": {
        "type": "Point",
        "coordinates": [
          -119.45925041820003,
          -66.52123604568578
        ]
      }
    },
    {
      "type": "Feature",
      "properties": {
        "norad_id": 35062,
        "name": "COSMOS 2251 DEB",
        "group": "cosmos-2251-debris",
        "lat": 38.63272191294119,
        "lon": -122.21513117492765,
        "alt_km": 783.137918669564,
        "timestamp": "2025-12-25T03:55:56.763257+00:00",
        "meta_object_name": "COSMOS 2251 DEB",
        "meta_object_id": "1993-036AHR",
        "meta_epoch": "2025-12-20T22:03:28.302048",
        "meta_mean_motion": 14.22993492,
        "meta_eccentricity": 0.0126453,
        "meta_inclination": 74.0793,
        "meta_ra_of_asc_node": 78.5797,
        "meta_arg_of_pericenter": 75.845,
        "meta_mean_anomaly": 285.6708,
        "meta_ephemeris_type": 0,
        "meta_classification_type": "U",
        "meta_norad_cat_id": 35062,
        "meta_element_set_no": 999,
        "meta_rev_at_epoch": 85615,
        "meta_bstar": 0.0011493,
        "meta_mean_motion_dot": 2.786e-05,
        "meta_mean_motion_ddot": 0,
        "tle_line1": "1 35062U 93036AHR 25354.91907757  .00002786  00000+0  11493-2 0  9993",
        "tle_line2": "2 35062  74.0793  78.5797 0126453  75.8450 285.6708 14.22993492856157"
      },
      "geometry": {
        "type": "Point",
        "coordinates": [
          -122.21513117492765,
          38.63272191294119
        ]
      }
    },
    {
      "type": "Feature",
      "properties": {
        "norad_id": 35065,
        "name": "COSMOS 2251 DEB",
        "group": "cosmos-2251-debris",
        "lat": 54.26613683021682,
        "lon": -32.32720405007605,
        "alt_km": 748.1619923428798,
        "timestamp": "2025-12-25T03:55:56.763267+00:00",
        "meta_object_name": "COSMOS 2251 DEB",
        "meta_object_id": "1993-036AHU",
        "meta_epoch": "2025-12-19T06:12:25.656192",
        "meta_mean_motion": 14.4574331,
        "meta_eccentricity": 0.0020018,
        "meta_inclination": 74.0185,
        "meta_ra_of_asc_node": 182.1668,
        "meta_arg_of_pericenter": 306.5523,
        "meta_mean_anomaly": 53.3791,
        "meta_ephemeris_type": 0,
        "meta_classification_type": "U",
        "meta_norad_cat_id": 35065,
        "meta_element_set_no": 999,
        "meta_rev_at_epoch": 68445,
        "meta_bstar": 0.00028971,
        "meta_mean_motion_dot": 1.002e-05,
        "meta_mean_motion_ddot": 0,
        "tle_line1": "1 35065U 93036AHU 25353.25863028  .00001002  00000+0  28971-3 0  9994",
        "tle_line2": "2 35065  74.0185 182.1668 0020018 306.5523  53.3791 14.45743310684450"
      },
      "geometry": {
        "type": "Point",
        "coordinates": [
          -32.32720405007605,
          54.26613683021682
        ]
      }
    },
    {
      "type": "Feature",
      "properties": {
        "norad_id": 35071,
        "name": "COSMOS 2251 DEB",
        "group": "cosmos-2251-debris",
        "lat": 43.83365069560294,
        "lon": 163.95083412857406,
        "alt_km": 504.26044860003094,
        "timestamp": "2025-12-25T03:55:56.763278+00:00",
        "meta_object_name": "COSMOS 2251 DEB",
        "meta_object_id": "1993-036AJA",
        "meta_epoch": "2025-12-23T03:49:38.502624",
        "meta_mean_motion": 15.03640344,
        "meta_eccentricity": 0.00685241,
        "meta_inclination": 73.9316,
        "meta_ra_of_asc_node": 152.0069,
        "meta_arg_of_pericenter": 45.3397,
        "meta_mean_anomaly": 315.3347,
        "meta_ephemeris_type": 0,
        "meta_classification_type": "U",
        "meta_norad_cat_id": 35071,
        "meta_element_set_no": 999,
        "meta_rev_at_epoch": 67693,
        "meta_bstar": 0.00067222607,
        "meta_mean_motion_dot": 9.658e-05,
        "meta_mean_motion_ddot": 0,
        "tle_line1": "1 35071U 93036AJA 25357.15947341  .00009658  00000+0  67223-3 0  9993",
        "tle_line2": "2 35071  73.9316 152.0069 0068524  45.3397 315.3347 15.03640344676933"
      },
      "geometry": {
        "type": "Point",
        "coordinates": [
          163.95083412857406,
          43.83365069560294
        ]
      }
    },
    {
      "type": "Feature",
      "properties": {
        "norad_id": 35073,
        "name": "COSMOS 2251 DEB",
        "group": "cosmos-2251-debris",
        "lat": 39.41150062645364,
        "lon": -41.133399917002095,
        "alt_km": 551.102410268556,
        "timestamp": "2025-12-25T03:55:56.763288+00:00",
        "meta_object_name": "COSMOS 2251 DEB",
        "meta_object_id": "1993-036AJC",
        "meta_epoch": "2025-12-23T13:22:12.377280",
        "meta_mean_motion": 15.01382354,
        "meta_eccentricity": 0.00112511,
        "meta_inclination": 74.0027,
        "meta_ra_of_asc_node": 308.5087,
        "meta_arg_of_pericenter": 50.3654,
        "meta_mean_anomaly": 309.8525,
        "meta_ephemeris_type": 0,
        "meta_classification_type": "U",
        "meta_norad_cat_id": 35073,
        "meta_element_set_no": 999,
        "meta_rev_at_epoch": 67641,
        "meta_bstar": 0.0032564954,
        "meta_mean_motion_dot": 0.00042271,
        "meta_mean_motion_ddot": 0,
        "tle_line1": "1 35073U 93036AJC 25357.55708770  .00042271  00000+0  32565-2 0  9998",
        "tle_line2": "2 35073  74.0027 308.5087 0011251  50.3654 309.8525 15.01382354676412"
      },
      "geometry": {
        "type": "Point",
        "coordinates": [
          -41.133399917002095,
          39.41150062645364
        ]
      }
    }
  ]
}